1 41434U 16021A   16317.08178841 -.00000140  00000-0  10000-3 0  9991
2 41434  55.2543  74.7963 0029500 176.0987 286.2559  1.00276452  2356
